<!DOCTYPE html>
<html lang="en">
<head>
  <script src="https://cesium.com/downloads/cesiumjs/releases/1.81/Build/Cesium/Cesium.js"></script>
  <link href="https://cesium.com/downloads/cesiumjs/releases/1.81/Build/Cesium/Widgets/widgets.css" rel="stylesheet">
  <script src="https://cdnjs.cloudflare.com/ajax/libs/satellite.js/4.0.0/satellite.min.js"></script>
  <link href="style.css" rel="stylesheet">
</head>
<body>
  <div id="cesiumContainer"></div>
  <script>
    // Initialize the Cesium viewer.
    const viewer = new Cesium.Viewer('cesiumContainer', {
      imageryProvider: new Cesium.TileMapServiceImageryProvider({
        url: Cesium.buildModuleUrl("Assets/Textures/NaturalEarthII"),
      }),
      baseLayerPicker: false, geocoder: false, homeButton: false, infoBox: false,
      navigationHelpButton: false, sceneModePicker: false
    });
    viewer.scene.globe.enableLighting = true;
    // These 2 lines are published by NORAD and allow us to predict where
    // the ISS is at any given moment. They are regularly updated.
    // Get the latest from: https://celestrak.com/satcat/tle.php?CATNR=25544. 
    const ISS_TLE = 
    `1 25544U 98067A   21121.52590485  .00001448  00000-0  34473-4 0  9997
    2 25544  51.6435 213.5204 0002719 305.2287 173.7124 15.48967392281368
    1 00154U 61015AQ  16277.50008833  .00000072  00000-0  93030-4 0  9991
2 00154  66.6587  62.3123 0091102 283.8793  75.2169 14.04209985819280
1 00155U 61015AR  16277.18668698  .00000524  00000-0  19817-3 0  9999
2 00155  66.8796 286.6742 0042803 131.3482 229.1317 14.38246977850705
1 00158U 61015AU  16277.38946337  .00000057  00000-0  28435-3 0  9990
2 00158  67.0721 287.5441 0616761 233.8399 120.4047 12.65072175556958
1 00159U 61015AV  16277.02977363  .00000147  00000-0  50743-3 0  9992
2 00159  65.5252 141.5016 0363368  67.2805 296.6194 13.01851373619855`;
    
    const satrec = satellite.twoline2satrec(
      ISS_TLE.split('\n')[0].trim(), 
      ISS_TLE.split('\n')[1].trim()
    );
    // Give SatelliteJS the TLE. Get back a longitude, latitude, height (km).
    const positionAndVelocity = satellite.propagate(satrec, new Date());
    const gmst = satellite.gstime(new Date());
    const position = satellite.eciToGeodetic(positionAndVelocity.position, gmst);
    // Visualize the satellite at this location with a red dot.
    const satellitePoint = viewer.entities.add({
      position: Cesium.Cartesian3.fromRadians(
        position.longitude, position.latitude, position.height * 1000
      ),
      point: { pixelSize: 15, color: Cesium.Color.BLUE }
    });
  </script>
</body>
</html>